SENTINEL-6              
1 46984U 20086A   24060.78414917 -.00000064  00000+0 -11334-4 0  9997
2 46984  66.0400  76.4234 0007877 270.8109  89.2003 12.80931192152940
